{
"type": "FeatureCollection",
"name": "santarem",
"crs": { "type": "name", "properties": { "name": "urn:ogc:def:crs:EPSG::4674" } },
"features": [
{ "type": "Feature", "properties": { "CD_MUN": "1506807", "NM_MUN": "Santarém", "CD_RGI": "150015", "NM_RGI": "Santarém", "CD_RGINT": "1505", "NM_RGINT": "Santarém", "CD_UF": "15", "NM_UF": "Pará", "CD_REGIAO": "1", "NM_REGIAO": "Norte", "CD_CONCURB": "1506807", "NM_CONCURB": "Santarém", "AREA_KM2": 17899.238 }, "geometry": { "type": "MultiPolygon", "coordinates": [ [ [ [ -54.728551399999958, -2.626633499999969 ], [ -54.728588599999966, -2.626717499999927 ], [ -54.732196499999986, -2.634872 ], [ -54.738889699999959, -2.649999599999944 ], [ -54.757579199999952, -2.655544099999929 ], [ -54.759696099999985, -2.656172199999958 ], [ -54.776388199999985, -2.661111799999958 ], [ -54.832388099999946, -2.661111799999958 ], [ -54.832448899999974, -2.661098099999947 ], [ -54.832448699999986, -2.660950599999978 ], [ -54.832446599999969, -2.659787699999924 ], [ -54.832441599999981, -2.657028599999933 ], [ -54.832438799999977, -2.655497799999978 ], [ -54.832438099999933, -2.655143299999963 ], [ -54.832438099999933, -2.655111499999975 ], [ -54.831727199999932, -2.654397699999947 ], [ -54.830251699999963, -2.653476299999966 ], [ -54.825562399999967, -2.652352899999926 ], [ -54.824117599999965, -2.652006699999959 ], [ -54.82392109999995, -2.651959599999941 ], [ -54.822077899999954, -2.651518 ], [ -54.818162099999938, -2.650579899999968 ], [ -54.817683799999941, -2.650465299999951 ], [ -54.816173499999934, -2.650103499999943 ], [ -54.813787799999943, -2.649531899999943 ], [ -54.799195, -2.646035799999936 ], [ -54.79961179999998, -2.645389 ], [ -54.799747499999967, -2.645178199999975 ], [ -54.801254, -2.644221399999935 ], [ -54.803887599999939, -2.64357769999998 ], [ -54.805641099999946, -2.643503299999963 ], [ -54.806639799999971, -2.64294289999998 ], [ -54.808193699999947, -2.641440799999941 ], [ -54.809281, -2.640128899999979 ], [ -54.809062199999971, -2.637026499999934 ], [ -54.808693199999936, -2.635173 ], [ -54.807476899999983, -2.631475399999943 ], [ -54.806502, -2.627131899999938 ], [ -54.80694909999994, -2.621817299999975 ], [ -54.807280799999944, -2.620224699999937 ], [ -54.807666899999958, -2.619257799999957 ], [ -54.809472699999958, -2.616760799999952 ], [ -54.810478799999942, -2.615042099999926 ], [ -54.811305, -2.613251099999957 ], [ -54.813698199999976, -2.60676959999995 ], [ -54.814025199999946, -2.60630279999998 ], [ -54.816307599999959, -2.605062499999974 ], [ -54.81869839999996, -2.603208099999961 ], [ -54.820002899999963, -2.601326399999948 ], [ -54.820585599999959, -2.60001479999994 ], [ -54.821196499999985, -2.599146299999973 ], [ -54.822141, -2.598114799999962 ], [ -54.823614899999939, -2.596903099999963 ], [ -54.825277, -2.596033 ], [ -54.828484, -2.595059699999979 ], [ -54.830193699999938, -2.594102799999973 ], [ -54.830141899999944, -2.583247099999937 ], [ -54.830081299999961, -2.570564099999956 ], [ -54.842834899999957, -2.570576499999959 ], [ -54.882831199999941, -2.570614499999976 ], [ -54.958335799999986, -2.570682699999963 ], [ -54.959276699999975, -2.568773199999953 ], [ -54.959337299999959, -2.566839899999934 ], [ -54.959145499999977, -2.565195299999971 ], [ -54.958780299999944, -2.563911499999961 ], [ -54.958085799999935, -2.562246499999958 ], [ -54.956237199999975, -2.560017099999925 ], [ -54.955035399999986, -2.55818789999995 ], [ -54.954324399999962, -2.554989199999966 ], [ -54.954113699999937, -2.553343699999971 ], [ -54.954445099999987, -2.55155039999994 ], [ -54.955203199999971, -2.550471099999925 ], [ -54.956245499999966, -2.549419599999965 ], [ -54.957167899999945, -2.549125 ], [ -54.959811399999978, -2.548942199999942 ], [ -54.961481399999968, -2.549131699999975 ], [ -54.964029299999936, -2.54981609999993 ], [ -54.967536699999982, -2.55050069999993 ], [ -54.969172199999946, -2.550282399999958 ], [ -54.970395599999961, -2.549684699999943 ], [ -54.971034199999963, -2.549918399999967 ], [ -54.972257899999931, -2.54980089999998 ], [ -54.972697499999981, -2.549610599999937 ], [ -54.973865399999966, -2.548279599999944 ], [ -54.974809, -2.547465099999954 ], [ -54.97569059999995, -2.547471 ], [ -54.975715299999933, -2.547471199999961 ], [ -55.000417399999947, -2.547636199999943 ], [ -55.058390299999985, -2.549334699999974 ], [ -55.059643499999936, -2.555545599999959 ], [ -55.059952599999974, -2.558629499999938 ], [ -55.060172, -2.560807599999976 ], [ -55.060613399999966, -2.562796399999968 ], [ -55.061388699999952, -2.565264199999945 ], [ -55.062751399999968, -2.571159399999942 ], [ -55.063671199999931, -2.574315199999944 ], [ -55.064221699999962, -2.577687399999945 ], [ -55.064224499999966, -2.581068099999925 ], [ -55.064921499999969, -2.585535199999924 ], [ -55.066030599999976, -2.589133899999979 ], [ -55.066755199999932, -2.594341399999962 ], [ -55.067755, -2.598462799999936 ], [ -55.068615699999953, -2.605064499999969 ], [ -55.072084699999948, -2.623806399999978 ], [ -55.073089799999934, -2.631834799999979 ], [ -55.076330599999949, -2.647348799999975 ], [ -55.079006899999968, -2.663016099999936 ], [ -55.080058799999961, -2.67305349999998 ], [ -55.080776399999934, -2.682275699999934 ], [ -55.082361799999944, -2.694364199999939 ], [ -55.085005799999976, -2.705574699999943 ], [ -55.087555499999951, -2.71987839999997 ], [ -55.091391, -2.735680199999933 ], [ -55.093721799999969, -2.749303199999929 ], [ -55.094113299999947, -2.75159309999998 ], [ -55.096906599999954, -2.781786699999941 ], [ -55.101228299999946, -2.812871199999961 ], [ -55.102258799999959, -2.820286299999964 ], [ -55.108757799999978, -2.841051899999968 ], [ -55.113813099999959, -2.861283399999934 ], [ -55.119386, -2.878353899999979 ], [ -55.119641699999931, -2.879137 ], [ -55.121820499999956, -2.88553289999993 ], [ -55.12702859999996, -2.900820799999963 ], [ -55.13489119999997, -2.920055499999933 ], [ -55.145639099999983, -2.943084499999941 ], [ -55.150143799999967, -2.95273629999997 ], [ -55.156807199999946, -2.967414799999972 ], [ -55.161558599999978, -2.978720899999928 ], [ -55.164313499999935, -2.989486499999941 ], [ -55.166471499999943, -2.997187599999961 ], [ -55.167815499999961, -3.000632 ], [ -55.170033499999931, -3.005465899999933 ], [ -55.170282899999961, -3.006479199999944 ], [ -55.172994199999948, -3.017474499999935 ], [ -55.177036199999975, -3.041926599999954 ], [ -55.178422, -3.051409599999943 ], [ -55.182197899999949, -3.069634699999938 ], [ -55.182335099999932, -3.070296699999972 ], [ -55.186559799999941, -3.090687899999978 ], [ -55.192696799999965, -3.113764799999956 ], [ -55.199343, -3.134747799999957 ], [ -55.200150899999983, -3.137298499999929 ], [ -55.206070499999953, -3.157482099999925 ], [ -55.210918199999981, -3.174010499999952 ], [ -55.217587799999933, -3.194322599999964 ], [ -55.224257399999942, -3.214634799999942 ], [ -55.233869699999957, -3.24192069999998 ], [ -55.288583399999936, -3.240374199999962 ], [ -55.291668399999935, -3.240287 ], [ -55.295950599999969, -3.239847499999939 ], [ -55.297557899999958, -3.237285899999961 ], [ -55.300334, -3.234723699999961 ], [ -55.305308099999934, -3.23431949999997 ], [ -55.307367499999941, -3.231386599999951 ], [ -55.316258799999957, -3.226591399999961 ], [ -55.320144399999947, -3.225565699999947 ], [ -55.323755199999937, -3.22780309999996 ], [ -55.32855909999995, -3.227307699999926 ], [ -55.330870899999979, -3.224830199999928 ], [ -55.335813499999972, -3.221612299999947 ], [ -55.341428299999961, -3.222653599999944 ], [ -55.344034599999986, -3.221176499999956 ], [ -55.346924399999978, -3.22169619999994 ], [ -55.352483399999983, -3.227548199999944 ], [ -55.354945199999975, -3.231703699999969 ], [ -55.358062799999971, -3.235037399999953 ], [ -55.371251299999983, -3.235109099999931 ], [ -55.375140599999952, -3.236252899999954 ], [ -55.80032749999998, -3.248871099999974 ], [ -55.88572929999998, -3.251405499999976 ], [ -56.344628899999975, -3.264795099999958 ], [ -56.001304299999958, -2.68354979999998 ], [ -55.946764499999972, -2.592124599999977 ], [ -55.865479, -2.455056599999978 ], [ -55.859317199999964, -2.44463989999997 ], [ -55.831099499999937, -2.396929799999953 ], [ -55.81906349999997, -2.376576499999942 ], [ -55.818591099999935, -2.368704199999968 ], [ -55.818511099999967, -2.367366499999946 ], [ -55.816014199999984, -2.361692399999924 ], [ -55.81555979999996, -2.357914699999981 ], [ -55.815950099999952, -2.353874699999949 ], [ -55.815395, -2.347286799999949 ], [ -55.813343799999984, -2.33371829999993 ], [ -55.811478299999976, -2.330187399999943 ], [ -55.807286099999942, -2.328846 ], [ -55.804921099999945, -2.327077399999951 ], [ -55.797674, -2.326526199999932 ], [ -55.794400899999971, -2.325391499999967 ], [ -55.791178299999956, -2.322918899999934 ], [ -55.78847849999994, -2.320136499999933 ], [ -55.787672399999963, -2.316812 ], [ -55.786149899999941, -2.314291099999934 ], [ -55.782839099999933, -2.309947799999975 ], [ -55.778874599999938, -2.304746699999953 ], [ -55.776873799999976, -2.300806299999977 ], [ -55.773957, -2.29757479999995 ], [ -55.770782399999973, -2.296772499999975 ], [ -55.767339799999945, -2.297338099999934 ], [ -55.761790399999938, -2.295445799999925 ], [ -55.759314599999982, -2.292630499999973 ], [ -55.755898499999944, -2.292101399999979 ], [ -55.753401199999985, -2.293767699999933 ], [ -55.750482499999976, -2.297034499999938 ], [ -55.746734099999969, -2.297563299999979 ], [ -55.743232199999966, -2.294449099999952 ], [ -55.739729399999931, -2.289844199999948 ], [ -55.737263499999983, -2.283973399999979 ], [ -55.730089599999985, -2.279802199999949 ], [ -55.719757199999947, -2.277536699999928 ], [ -55.717200899999966, -2.274964399999931 ], [ -55.713535299999933, -2.27012179999997 ], [ -55.705761799999948, -2.270401299999946 ], [ -55.701479, -2.26897 ], [ -55.692255399999965, -2.26231869999998 ], [ -55.690419299999974, -2.259689399999957 ], [ -55.688422499999945, -2.251087799999937 ], [ -55.689091, -2.246068199999968 ], [ -55.686813399999949, -2.242573399999969 ], [ -55.683898699999986, -2.240874599999927 ], [ -55.681594799999971, -2.238699599999961 ], [ -55.676566, -2.235685199999978 ], [ -55.67284049999995, -2.232499399999938 ], [ -55.670498399999985, -2.229589799999928 ], [ -55.668122299999936, -2.226638 ], [ -55.665907, -2.221684 ], [ -55.664787699999977, -2.219182199999977 ], [ -55.663069899999982, -2.212162 ], [ -55.66392019999995, -2.208784699999967 ], [ -55.659717199999932, -2.197140799999943 ], [ -55.655484899999976, -2.194758099999945 ], [ -55.647765599999957, -2.194123 ], [ -55.64309529999997, -2.194866699999977 ], [ -55.632227599999965, -2.194837099999972 ], [ -55.62525949999997, -2.193797899999936 ], [ -55.621228599999938, -2.190538 ], [ -55.619229899999937, -2.186959399999978 ], [ -55.618730399999947, -2.183099 ], [ -55.619261299999948, -2.172613 ], [ -55.620619899999951, -2.167755199999931 ], [ -55.621640899999932, -2.158307399999956 ], [ -55.617067099999986, -2.157525799999974 ], [ -55.613253399999962, -2.156310399999938 ], [ -55.608120799999938, -2.155807799999934 ], [ -55.599149099999977, -2.155681699999946 ], [ -55.59408609999997, -2.153824799999938 ], [ -55.589170099999933, -2.155864899999926 ], [ -55.590261899999973, -2.15897259999997 ], [ -55.590202299999987, -2.162147499999946 ], [ -55.589865199999963, -2.16558219999996 ], [ -55.587224399999968, -2.168514899999934 ], [ -55.581112399999938, -2.169425399999966 ], [ -55.576591599999972, -2.170316899999932 ], [ -55.573065399999962, -2.168159099999968 ], [ -55.570277199999964, -2.166723699999977 ], [ -55.56525419999997, -2.164446299999952 ], [ -55.561645799999951, -2.164463599999976 ], [ -55.557897299999979, -2.165517099999931 ], [ -55.553511399999934, -2.165549599999963 ], [ -55.547450099999935, -2.164154599999961 ], [ -55.541533299999969, -2.162478299999975 ], [ -55.536866699999962, -2.160610799999972 ], [ -55.528088899999943, -2.156588599999964 ], [ -55.523700599999984, -2.155154699999969 ], [ -55.520732, -2.152192399999933 ], [ -55.515476699999965, -2.148445899999956 ], [ -55.505394499999966, -2.142379799999958 ], [ -55.500455799999941, -2.13879559999998 ], [ -55.497400299999981, -2.137828499999955 ], [ -55.490726, -2.135396799999967 ], [ -55.487282199999981, -2.134496099999978 ], [ -55.482786799999985, -2.133776399999931 ], [ -55.478894099999934, -2.13342849999998 ], [ -55.476087699999937, -2.132617499999981 ], [ -55.468896299999983, -2.131719499999974 ], [ -55.460752099999979, -2.131914399999971 ], [ -55.452202699999987, -2.131302299999959 ], [ -55.437838399999976, -2.131152199999974 ], [ -55.429091399999947, -2.13071739999998 ], [ -55.424667699999986, -2.130722399999968 ], [ -55.420091, -2.130462699999953 ], [ -55.406806199999949, -2.130124199999955 ], [ -55.40187119999996, -2.130228099999954 ], [ -55.390842, -2.131069 ], [ -55.377585199999942, -2.133910799999967 ], [ -55.373532499999953, -2.135550899999942 ], [ -55.37075649999997, -2.137551499999972 ], [ -55.36953479999994, -2.138958899999977 ], [ -55.368313, -2.140366299999926 ], [ -55.365890699999966, -2.143822099999966 ], [ -55.364364399999943, -2.146915499999977 ], [ -55.361752, -2.150914 ], [ -55.360145399999965, -2.153818499999943 ], [ -55.358978499999978, -2.156811299999958 ], [ -55.359172, -2.160083899999961 ], [ -55.360702699999933, -2.163799299999937 ], [ -55.361254, -2.16715309999995 ], [ -55.360898199999951, -2.171421699999939 ], [ -55.35917459999996, -2.174053199999946 ], [ -55.35584259999996, -2.176606699999979 ], [ -55.35188949999997, -2.179150799999945 ], [ -55.348556099999939, -2.18115279999995 ], [ -55.341447699999947, -2.18489139999997 ], [ -55.33106, -2.189899499999967 ], [ -55.324032299999942, -2.192367699999977 ], [ -55.320977099999936, -2.192823399999952 ], [ -55.318174699999986, -2.195646699999941 ], [ -55.316397699999982, -2.199002499999949 ], [ -55.314672899999948, -2.201464199999975 ], [ -55.31106159999996, -2.204435599999954 ], [ -55.305669499999965, -2.207467399999928 ], [ -55.29889559999998, -2.210474099999942 ], [ -55.296281199999953, -2.212384099999952 ], [ -55.293783399999938, -2.213931499999944 ], [ -55.288240499999972, -2.215194 ], [ -55.287369499999954, -2.215392699999938 ], [ -55.283869299999935, -2.215856899999949 ], [ -55.27681229999996, -2.215963399999964 ], [ -55.268334699999969, -2.215708499999948 ], [ -55.261753199999987, -2.215723199999957 ], [ -55.257142499999986, -2.215908 ], [ -55.25164129999996, -2.216645 ], [ -55.248585799999944, -2.216836599999965 ], [ -55.241722899999957, -2.216850499999964 ], [ -55.239065499999981, -2.216855499999951 ], [ -55.234974399999942, -2.217038799999955 ], [ -55.230731, -2.217865099999926 ], [ -55.218644, -2.221066899999926 ], [ -55.209369, -2.224166699999955 ], [ -55.205476899999951, -2.224903199999972 ], [ -55.197729199999969, -2.226816399999962 ], [ -55.194476099999974, -2.228454699999929 ], [ -55.188087699999983, -2.23273839999996 ], [ -55.185671199999945, -2.234919399999967 ], [ -55.18339009999994, -2.237913099999957 ], [ -55.180973899999969, -2.240463899999952 ], [ -55.179286, -2.243279099999938 ], [ -55.176311, -2.246364699999958 ], [ -55.172861399999931, -2.247371099999953 ], [ -55.169167899999934, -2.249101899999971 ], [ -55.166562299999953, -2.251011799999958 ], [ -55.163669499999969, -2.253563899999961 ], [ -55.161531899999943, -2.256105399999967 ], [ -55.153506399999969, -2.259565799999962 ], [ -55.151733699999966, -2.259990199999947 ], [ -55.148167299999955, -2.260844 ], [ -55.143951699999946, -2.261852799999929 ], [ -55.136856699999953, -2.263035699999932 ], [ -55.131780399999968, -2.263508 ], [ -55.127978199999973, -2.263239799999951 ], [ -55.124199899999951, -2.26243889999995 ], [ -55.121197399999971, -2.261444799999936 ], [ -55.113896099999977, -2.259734299999934 ], [ -55.109561399999961, -2.259013399999958 ], [ -55.106667699999946, -2.258111399999962 ], [ -55.103421199999957, -2.256666299999949 ], [ -55.099579899999981, -2.254519099999925 ], [ -55.092344, -2.250060499999961 ], [ -55.089084799999966, -2.248431799999935 ], [ -55.085919399999966, -2.247166499999935 ], [ -55.082535899999982, -2.245159899999976 ], [ -55.082137899999964, -2.244923799999981 ], [ -55.081739899999945, -2.244687599999963 ], [ -55.076888599999961, -2.240654899999925 ], [ -55.074171299999932, -2.237483099999963 ], [ -55.071644299999946, -2.235125 ], [ -55.06992459199995, -2.232775077999975 ], [ -55.069887599999959, -2.231229199999973 ], [ -55.069841199999985, -2.229320499999972 ], [ -55.070890499999962, -2.224509399999931 ], [ -55.071805099999949, -2.221244499999955 ], [ -55.07297959999994, -2.218069899999932 ], [ -55.074504499999932, -2.214704299999937 ], [ -55.077280299999984, -2.209259 ], [ -55.079235, -2.206271399999935 ], [ -55.079363599999965, -2.206074699999931 ], [ -55.079365899999971, -2.206070599999975 ], [ -55.080889, -2.20326149999994 ], [ -55.085279599999978, -2.19708 ], [ -55.086806499999966, -2.193998299999976 ], [ -55.088970499999959, -2.190541699999926 ], [ -55.090587099999937, -2.187095599999964 ], [ -55.093278399999974, -2.180556299999978 ], [ -55.094444199999941, -2.176648399999976 ], [ -55.09498229999997, -2.173564699999929 ], [ -55.095178, -2.170662099999959 ], [ -55.094895699999938, -2.166946099999961 ], [ -55.090832399999954, -2.16685769999998 ], [ -55.087839199999962, -2.167321899999934 ], [ -55.084478799999943, -2.167230299999972 ], [ -55.076834599999984, -2.166706799999929 ], [ -55.071702499999958, -2.166708699999958 ], [ -55.068646699999931, -2.166358199999934 ], [ -55.064034, -2.166180699999927 ], [ -55.056284299999959, -2.165200499999969 ], [ -55.047258299999953, -2.164491599999963 ], [ -55.033130099999937, -2.162798699999939 ], [ -55.029943299999957, -2.162795499999959 ], [ -55.02578079999995, -2.162355199999979 ], [ -55.021285099999943, -2.162267799999938 ], [ -55.013778899999977, -2.162372399999924 ], [ -55.009284, -2.162113199999965 ], [ -55.006309399999964, -2.162205599999936 ], [ -55.000528499999973, -2.161214799999925 ], [ -54.995917599999984, -2.162321 ], [ -54.991864099999987, -2.162150899999972 ], [ -54.988807299999962, -2.161638399999958 ], [ -54.983474799999954, -2.15891019999998 ], [ -54.980534099999943, -2.157222099999956 ], [ -54.976252199999976, -2.154051099999947 ], [ -54.971058716999949, -2.149994371999981 ], [ -54.972352301999933, -2.149337312999933 ], [ -54.973799884999949, -2.148711053999932 ], [ -54.974549342999978, -2.148269592999952 ], [ -54.972608965999939, -2.147530400999926 ], [ -54.970750720999945, -2.146709076999969 ], [ -54.967095829999948, -2.145261493999953 ], [ -54.963276674999975, -2.143516180999939 ], [ -54.961161765999975, -2.142561392999937 ], [ -54.96001191299996, -2.142058331999976 ], [ -54.958728594999968, -2.141411538999932 ], [ -54.957250211999963, -2.140682614999946 ], [ -54.955669163999971, -2.140046088999952 ], [ -54.953431056999932, -2.139183698999943 ], [ -54.950053362999938, -2.137664249999943 ], [ -54.946118300999956, -2.13599463099996 ], [ -54.939527699999985, -2.13231559999997 ], [ -54.930088099999978, -2.129586099999926 ], [ -54.921883499999979, -2.12799229999996 ], [ -54.914489599999968, -2.127743599999974 ], [ -54.908528599999954, -2.127542699999935 ], [ -54.901867799999934, -2.128053 ], [ -54.898056399999973, -2.128073399999948 ], [ -54.892276599999946, -2.128773899999942 ], [ -54.88803379999996, -2.129055799999946 ], [ -54.883135299999935, -2.130143699999962 ], [ -54.880330199999946, -2.131085799999937 ], [ -54.867668699999967, -2.134287699999959 ], [ -54.864028, -2.135852299999954 ], [ -54.860226099999977, -2.137048099999959 ], [ -54.852612299999976, -2.138897099999951 ], [ -54.84972769999996, -2.139197099999933 ], [ -54.847819440999956, -2.139871995999954 ], [ -54.842916, -2.141606199999956 ], [ -54.83814179999996, -2.141790599999979 ], [ -54.834725699999979, -2.141536499999972 ], [ -54.831749, -2.141032699999926 ], [ -54.827812, -2.140048299999933 ], [ -54.824503, -2.13835279999995 ], [ -54.822389299999941, -2.136046199999953 ], [ -54.820553099999984, -2.133289199999979 ], [ -54.818448499999931, -2.129618099999959 ], [ -54.815615199999968, -2.12648269999994 ], [ -54.812054399999965, -2.124422799999934 ], [ -54.809194499999933, -2.123636699999963 ], [ -54.80488779999996, -2.122109899999941 ], [ -54.799667099999965, -2.120914399999947 ], [ -54.798271699999987, -2.12074309999997 ], [ -54.792677499999968, -2.120056299999931 ], [ -54.787475599999937, -2.118774 ], [ -54.784336899999971, -2.11753669999996 ], [ -54.775104499999941, -2.113192399999946 ], [ -54.772279399999945, -2.111863 ], [ -54.764472699999942, -2.107126699999981 ], [ -54.762259699999959, -2.104942299999948 ], [ -54.754978199999982, -2.097754899999927 ], [ -54.751946099999941, -2.091797099999951 ], [ -54.749778, -2.086407699999938 ], [ -54.748310499999945, -2.083479499999953 ], [ -54.746215498999959, -2.07982885399997 ], [ -54.745783399999937, -2.079075899999964 ], [ -54.743668699999944, -2.076048499999956 ], [ -54.741393199999948, -2.073372799999959 ], [ -54.740922899999987, -2.073034899999925 ], [ -54.739863199999945, -2.072273099999961 ], [ -54.739333299999942, -2.071892099999957 ], [ -54.73880349999996, -2.071511199999975 ], [ -54.737486399999966, -2.072122199999967 ], [ -54.736169399999937, -2.072733299999925 ], [ -54.727893499999936, -2.077284799999973 ], [ -54.723256, -2.079277199999979 ], [ -54.719445199999939, -2.080473599999948 ], [ -54.715553199999931, -2.081124599999953 ], [ -54.710132648999945, -2.081561635999947 ], [ -54.709225199999935, -2.081634799999961 ], [ -54.701387099999977, -2.082660199999964 ], [ -54.697863499999983, -2.082778399999938 ], [ -54.692721699999936, -2.082682099999943 ], [ -54.689027, -2.082331099999976 ], [ -54.678667799999971, -2.081780299999934 ], [ -54.669701177999968, -2.080973796999956 ], [ -54.669502199999954, -2.080955899999935 ], [ -54.66150179999994, -2.080804699999931 ], [ -54.657995799999981, -2.080101699999943 ], [ -54.65646167999995, -2.080080836999969 ], [ -54.656392893999964, -2.08013060899998 ], [ -54.654155623999941, -2.081151939999927 ], [ -54.651626491999934, -2.081589711999925 ], [ -54.649486474999946, -2.081978805999938 ], [ -54.647832824999966, -2.082076078999933 ], [ -54.645546896999974, -2.08173562199994 ], [ -54.642916992999972, -2.080743667999968 ], [ -54.641266862999942, -2.08013060899998 ], [ -54.641247117999967, -2.079873927999927 ], [ -54.641223, -2.079873599999928 ], [ -54.636198099999945, -2.079676699999936 ], [ -54.635296809999943, -2.079599925999958 ], [ -54.634165895999956, -2.079692877999946 ], [ -54.629594040999962, -2.079498330999968 ], [ -54.627140431999976, -2.078905150999958 ], [ -54.621086899999966, -2.078389499999957 ], [ -54.616142899999943, -2.078110299999935 ], [ -54.605589799999962, -2.078269 ], [ -54.601249099999961, -2.078641399999981 ], [ -54.599028499999974, -2.079008499999929 ], [ -54.596807899999931, -2.079375599999935 ], [ -54.593554199999971, -2.080307399999924 ], [ -54.590193399999976, -2.080969699999969 ], [ -54.585491916999956, -2.080719208999938 ], [ -54.580892501999983, -2.081088804999979 ], [ -54.577648271999976, -2.081212002999962 ], [ -54.574198710999951, -2.081704797999976 ], [ -54.570913413999961, -2.082279724999978 ], [ -54.566601461999937, -2.083388511999942 ], [ -54.562489707999987, -2.084872028999939 ], [ -54.560610928999949, -2.085765218999938 ], [ -54.555029799999943, -2.087991 ], [ -54.551859499999978, -2.08848409999996 ], [ -54.551415399999939, -2.088553 ], [ -54.54633, -2.090354299999944 ], [ -54.540891499999987, -2.092789799999935 ], [ -54.536307099999931, -2.09542289999996 ], [ -54.532497399999954, -2.097884 ], [ -54.529639799999984, -2.100732599999958 ], [ -54.525533899999971, -2.104370299999971 ], [ -54.523052699999937, -2.106496299999947 ], [ -54.520582099999956, -2.108261499999969 ], [ -54.517669899999987, -2.109203 ], [ -54.515294666999978, -2.109276232999946 ], [ -54.515269799999942, -2.109277 ], [ -54.512275499999987, -2.109368399999937 ], [ -54.510157399999969, -2.114126799999951 ], [ -54.47143669999997, -2.174416199999939 ], [ -54.469028399999956, -2.178165699999965 ], [ -54.436327, -2.229078899999934 ], [ -54.435487299999977, -2.230386199999941 ], [ -54.402459199999953, -2.281803399999944 ], [ -54.376886099999979, -2.321614799999963 ], [ -54.369431199999951, -2.333220499999925 ], [ -54.332212199999958, -2.391154699999959 ], [ -54.332259112999964, -2.39247789999996 ], [ -54.332295499999987, -2.393504199999938 ], [ -54.330777899999987, -2.397335299999952 ], [ -54.328610599999934, -2.399170799999979 ], [ -54.328177299999936, -2.399538 ], [ -54.311058899999978, -2.401546099999962 ], [ -54.29016839999997, -2.40647389999998 ], [ -54.285664099999963, -2.407776199999944 ], [ -54.27885729999997, -2.409415399999943 ], [ -54.27250319999996, -2.413132699999949 ], [ -54.269886099999951, -2.414445399999977 ], [ -54.265915799999959, -2.415412899999978 ], [ -54.26452461699995, -2.417835796999952 ], [ -54.264248499999951, -2.418318 ], [ -54.261247199999957, -2.422370099999966 ], [ -54.26011479999994, -2.425191899999959 ], [ -54.259855499999958, -2.432834499999956 ], [ -54.260304, -2.436370499999953 ], [ -54.259578, -2.43918309999998 ], [ -54.256585299999983, -2.446328 ], [ -54.25216249999994, -2.451575 ], [ -54.248440599999981, -2.454370099999949 ], [ -54.244052399999987, -2.456686099999956 ], [ -54.239665899999977, -2.45932659999994 ], [ -54.237301499999944, -2.461028099999965 ], [ -54.236024499999985, -2.46472719999997 ], [ -54.234665399999983, -2.467303899999933 ], [ -54.230972399999985, -2.471412099999952 ], [ -54.228662899999961, -2.47358289999994 ], [ -54.227463899999975, -2.475769399999933 ], [ -54.226694399999985, -2.47717259999996 ], [ -54.226325599999939, -2.481849099999977 ], [ -54.227549299999964, -2.486940299999958 ], [ -54.229996799999981, -2.491886699999952 ], [ -54.231049699999971, -2.496870399999978 ], [ -54.231445899999983, -2.500089799999955 ], [ -54.23097, -2.503816699999959 ], [ -54.232165499999951, -2.506484299999954 ], [ -54.23508019999997, -2.509622699999966 ], [ -54.240278, -2.512442399999941 ], [ -54.242859099999976, -2.515218299999958 ], [ -54.241168799999969, -2.520853599999953 ], [ -54.24055, -2.524967599999968 ], [ -54.241522399999951, -2.531995099999961 ], [ -54.242854299999976, -2.537711199999933 ], [ -54.24432969999998, -2.541744299999948 ], [ -54.245573899999954, -2.544778199999939 ], [ -54.24827879999998, -2.549955 ], [ -54.25044749999995, -2.558429199999978 ], [ -54.251581699999974, -2.564344299999959 ], [ -54.252552499999979, -2.567156599999976 ], [ -54.254003399999931, -2.574272599999972 ], [ -54.254578799999933, -2.578487699999926 ], [ -54.25383329999994, -2.582566399999962 ], [ -54.252225399999986, -2.586500599999965 ], [ -54.249419499999931, -2.589703499999928 ], [ -54.24596779999996, -2.592145899999934 ], [ -54.243502499999977, -2.594262499999957 ], [ -54.240024799999958, -2.59684059999995 ], [ -54.233496, -2.599763799999948 ], [ -54.230834499999958, -2.601201299999957 ], [ -54.227166, -2.603590299999951 ], [ -54.223966099999984, -2.606276799999932 ], [ -54.221834399999977, -2.60833 ], [ -54.215216899999973, -2.614138899999944 ], [ -54.211836199999937, -2.616752099999928 ], [ -54.205883299999982, -2.617639399999973 ], [ -54.202079799999979, -2.619393499999944 ], [ -54.199103399999956, -2.620316499999944 ], [ -54.195110799999952, -2.621186199999954 ], [ -54.192440299999987, -2.622398399999952 ], [ -54.188808499999936, -2.624559499999975 ], [ -54.18656059999995, -2.626460699999939 ], [ -54.183188799999982, -2.628938199999936 ], [ -54.181367199999954, -2.631391099999973 ], [ -54.180635399999971, -2.632376 ], [ -54.178981199999953, -2.635475499999927 ], [ -54.178694399999983, -2.636012699999981 ], [ -54.178678099999956, -2.636423899999954 ], [ -54.17852419999997, -2.640298399999949 ], [ -54.182582599999932, -2.646518 ], [ -54.185028399999965, -2.651573799999937 ], [ -54.185277599999949, -2.652088299999946 ], [ -54.185081299999979, -2.656259199999965 ], [ -54.182303, -2.659397699999943 ], [ -54.179901299999983, -2.661209499999927 ], [ -54.17424589999996, -2.662953899999934 ], [ -54.170137199999942, -2.664031499999965 ], [ -54.167834399999947, -2.665995199999941 ], [ -54.165632399999936, -2.668199399999935 ], [ -54.16347369999994, -2.671710399999938 ], [ -54.16299749999996, -2.674784299999942 ], [ -54.164697599999954, -2.678683599999943 ], [ -54.166109, -2.681361199999969 ], [ -54.16700069999996, -2.685484899999949 ], [ -54.166218799999967, -2.68852359999994 ], [ -54.163223599999981, -2.691543699999954 ], [ -54.160247899999945, -2.691987199999971 ], [ -54.157389099999932, -2.692611599999964 ], [ -54.154249899999968, -2.695234599999935 ], [ -54.151552399999957, -2.698752799999966 ], [ -54.148415099999966, -2.701557599999944 ], [ -54.147630299999946, -2.704477899999972 ], [ -54.148307, -2.707326499999965 ], [ -54.149196699999948, -2.710230199999955 ], [ -54.151024399999983, -2.712546 ], [ -54.154027299999939, -2.713079199999925 ], [ -54.157139099999938, -2.714082599999927 ], [ -54.160718699999961, -2.716062699999952 ], [ -54.160188599999969, -2.720229099999926 ], [ -54.158858, -2.722898899999961 ], [ -54.156780799999979, -2.724934 ], [ -54.154415799999981, -2.726808099999971 ], [ -54.149003099999959, -2.729801299999963 ], [ -54.140827499999943, -2.73199169999998 ], [ -54.13691659999995, -2.734379599999954 ], [ -54.132113599999968, -2.737970399999938 ], [ -54.129415799999947, -2.739698 ], [ -54.124416, -2.744709499999942 ], [ -54.119082399999968, -2.748182799999938 ], [ -54.116836, -2.75018979999993 ], [ -54.114138099999934, -2.751900199999966 ], [ -54.111613, -2.754603499999973 ], [ -54.111045199999978, -2.761169099999961 ], [ -54.110773799999947, -2.762762599999974 ], [ -54.111311299999954, -2.769376099999931 ], [ -54.111109199999987, -2.77211079999995 ], [ -54.110595099999955, -2.775421699999924 ], [ -54.112215599999956, -2.886497199999951 ], [ -54.103024099999971, -2.886533399999962 ], [ -54.103223399999933, -2.892119499999978 ], [ -54.102467399999966, -2.89651379999998 ], [ -54.101721099999963, -2.899499099999957 ], [ -54.101307599999984, -2.90248349999996 ], [ -54.101388899999961, -2.906924699999934 ], [ -54.102688599999965, -2.916257499999972 ], [ -54.102496499999972, -2.920607399999938 ], [ -54.101327499999968, -2.924586599999941 ], [ -54.10080789999995, -2.927671399999952 ], [ -54.099915, -2.930881 ], [ -54.099162299999932, -2.934216299999946 ], [ -54.09897, -2.935068199999932 ], [ -54.097856699999966, -2.937784099999931 ], [ -54.09621889999994, -2.940351699999951 ], [ -54.093863799999951, -2.947414799999933 ], [ -54.090194599999961, -2.957047299999942 ], [ -54.088770099999977, -2.961010299999941 ], [ -54.08666009999996, -2.96464409999993 ], [ -54.083745, -2.967764299999942 ], [ -54.081389299999955, -2.969518 ], [ -54.078170099999966, -2.972495399999957 ], [ -54.068806499999937, -2.978038699999956 ], [ -54.062806899999941, -2.982436 ], [ -54.057355899999948, -2.985517399999935 ], [ -54.054746499999965, -2.987338 ], [ -54.052525599999967, -2.989373799999953 ], [ -54.047722399999941, -2.994925799999976 ], [ -54.046049399999958, -2.998768499999926 ], [ -54.046247499999936, -3.004160199999944 ], [ -54.046166699999958, -3.007424899999933 ], [ -54.045807899999943, -3.01070859999993 ], [ -54.046419299999968, -3.025095799999974 ], [ -54.046248599999956, -3.029175299999963 ], [ -54.045250399999986, -3.036691399999938 ], [ -54.045412799999951, -3.048475 ], [ -54.047735099999954, -3.059801799999946 ], [ -54.048913, -3.067503199999976 ], [ -54.049003099999936, -3.071130499999924 ], [ -54.048365499999932, -3.075480399999947 ], [ -54.049004399999944, -3.078745099999935 ], [ -54.050703, -3.082541499999934 ], [ -54.058278799999982, -3.084641899999951 ], [ -54.060248099999967, -3.086993099999972 ], [ -54.062947299999962, -3.092617 ], [ -54.06349629999994, -3.095973 ], [ -54.063470399999972, -3.099228699999969 ], [ -54.064028299999961, -3.102403799999934 ], [ -54.067249499999946, -3.110288599999933 ], [ -54.069976599999961, -3.114367899999934 ], [ -54.072305, -3.11627679999998 ], [ -54.075725499999976, -3.118455099999949 ], [ -54.07880149999994, -3.119993199999954 ], [ -54.08222029999996, -3.121448 ], [ -54.089523799999938, -3.124080899999967 ], [ -54.094473, -3.126349399999981 ], [ -54.097639899999933, -3.128257299999973 ], [ -54.102948199999958, -3.132254899999964 ], [ -54.102750599999979, -3.135329699999943 ], [ -54.101500399999964, -3.138323199999945 ], [ -54.099854299999947, -3.14167029999993 ], [ -54.098964, -3.144933299999934 ], [ -54.098054799999943, -3.149285 ], [ -54.097497399999952, -3.152993799999933 ], [ -54.096607899999981, -3.156708899999956 ], [ -54.09777779999996, -3.160336099999938 ], [ -54.099748399999953, -3.163419799999929 ], [ -54.10291559999996, -3.166232 ], [ -54.109861599999931, -3.17040929999996 ], [ -54.114081299999953, -3.172408399999938 ], [ -54.119020799999987, -3.174316 ], [ -54.124806099999944, -3.176766 ], [ -54.128135099999952, -3.177760399999954 ], [ -54.132750699999974, -3.179488 ], [ -54.136690599999952, -3.18076259999998 ], [ -54.139660599999957, -3.181494699999973 ], [ -54.149054, -3.185300699999971 ], [ -54.151942299999973, -3.186846699999933 ], [ -54.154804499999955, -3.188753499999962 ], [ -54.157332, -3.190201 ], [ -54.161749799999939, -3.191936599999963 ], [ -54.167979599999967, -3.193852799999945 ], [ -54.174022299999933, -3.195478699999967 ], [ -54.181219399999975, -3.197025699999926 ], [ -54.192664799999932, -3.198298699999953 ], [ -54.196111, -3.199662699999976 ], [ -54.19889139999998, -3.201661699999931 ], [ -54.202336899999978, -3.203749099999925 ], [ -54.204936499999974, -3.20583849999997 ], [ -54.207917099999975, -3.209101699999962 ], [ -54.209248399999979, -3.212368799999979 ], [ -54.2115, -3.223417499999925 ], [ -54.211860599999966, -3.226863799999933 ], [ -54.212671, -3.22994749999998 ], [ -54.213913399999967, -3.233393599999943 ], [ -54.216001399999982, -3.236567399999956 ], [ -54.218412499999943, -3.23983149999998 ], [ -54.22113939999997, -3.242823399999963 ], [ -54.223921099999984, -3.24518489999997 ], [ -54.232389099999978, -3.251169699999934 ], [ -54.234638899999936, -3.253167699999949 ], [ -54.236717899999974, -3.255526699999962 ], [ -54.239419, -3.263051899999937 ], [ -54.242728699999986, -3.26448449999998 ], [ -54.248928799999931, -3.266521499999953 ], [ -54.248888, -3.166668299999969 ], [ -54.248472799999945, -3.166445099999976 ], [ -54.248315199999979, -3.16597 ], [ -54.248157599999956, -3.165359099999932 ], [ -54.248044899999968, -3.164793499999973 ], [ -54.248044799999946, -3.164237899999932 ], [ -54.248179799999946, -3.163616799999943 ], [ -54.24831469999998, -3.16316409999996 ], [ -54.248832199999981, -3.162258799999961 ], [ -54.249034699999982, -3.161828799999967 ], [ -54.249034499999937, -3.160968899999943 ], [ -54.249056899999971, -3.160312699999963 ], [ -54.249079199999983, -3.159339699999975 ], [ -54.24905659999996, -3.15884189999997 ], [ -54.248741399999972, -3.158118 ], [ -54.248583799999949, -3.15766549999995 ], [ -54.248516199999983, -3.157213 ], [ -54.248876199999984, -3.156488699999954 ], [ -54.249123599999962, -3.155900299999928 ], [ -54.24943849999994, -3.15490449999993 ], [ -54.24975349999994, -3.154225499999939 ], [ -54.249910899999975, -3.153795499999944 ], [ -54.250180899999975, -3.153433299999961 ], [ -54.250338399999976, -3.152935499999955 ], [ -54.249910599999964, -3.152234199999953 ], [ -54.249595499999941, -3.15187229999998 ], [ -54.249302799999953, -3.151238899999953 ], [ -54.249190199999987, -3.150718499999925 ], [ -54.24901, -3.150062399999968 ], [ -54.248897399999976, -3.149428899999975 ], [ -54.248874699999931, -3.148840599999971 ], [ -54.248852099999965, -3.148026 ], [ -54.248852, -3.147550799999976 ], [ -54.248806899999977, -3.147098299999925 ], [ -54.248536699999931, -3.146510099999944 ], [ -54.24842979999994, -3.145930299999975 ], [ -54.248356399999977, -3.145243 ], [ -54.248221299999955, -3.144767899999977 ], [ -54.247951099999966, -3.144202399999926 ], [ -54.247703499999943, -3.143659399999933 ], [ -54.247410799999955, -3.143207 ], [ -54.246893199999931, -3.142981 ], [ -54.246060399999976, -3.142845699999953 ], [ -54.245475299999953, -3.142845899999941 ], [ -54.244620099999963, -3.142823699999951 ], [ -54.24410249999994, -3.142778699999951 ], [ -54.243562299999951, -3.14262059999993 ], [ -54.243089699999985, -3.142326699999956 ], [ -54.242729499999939, -3.142032699999959 ], [ -54.24209929999995, -3.141625699999963 ], [ -54.241626599999961, -3.141150799999934 ], [ -54.241266399999972, -3.140607899999964 ], [ -54.240973799999949, -3.140223399999968 ], [ -54.240613599999961, -3.13981629999995 ], [ -54.240208499999937, -3.139431799999954 ], [ -54.239735899999971, -3.139409399999977 ], [ -54.239038299999947, -3.139590799999951 ], [ -54.238498199999981, -3.139681499999938 ], [ -54.237868, -3.139478199999928 ], [ -54.237417799999946, -3.139093799999955 ], [ -54.236990099999957, -3.138686699999937 ], [ -54.236517499999934, -3.13852849999995 ], [ -54.236044899999968, -3.138370399999928 ], [ -54.235257199999978, -3.138325499999951 ], [ -54.234582099999955, -3.138325799999961 ], [ -54.233997, -3.13850709999997 ], [ -54.233479399999965, -3.13850739999998 ], [ -54.232781699999975, -3.138507699999934 ], [ -54.232129, -3.138349699999935 ], [ -54.231566399999963, -3.138191499999948 ], [ -54.230846199999974, -3.138191899999924 ], [ -54.23037359999995, -3.138124199999936 ], [ -54.229923499999984, -3.137988699999937 ], [ -54.22929339999996, -3.137853199999938 ], [ -54.228843299999937, -3.137853499999949 ], [ -54.228303099999948, -3.137831099999971 ], [ -54.227695399999959, -3.137446699999941 ], [ -54.227267799999936, -3.137220699999943 ], [ -54.226750199999969, -3.137017299999968 ], [ -54.226345, -3.136745899999937 ], [ -54.225692299999935, -3.136135299999978 ], [ -54.225332199999968, -3.135841299999925 ], [ -54.22490449999998, -3.135411599999941 ], [ -54.224544399999957, -3.135095 ], [ -54.224049199999968, -3.134529599999951 ], [ -54.223756599999945, -3.134099799999944 ], [ -54.223508899999956, -3.133556899999974 ], [ -54.223126199999967, -3.133104499999945 ], [ -54.222991099999945, -3.132652 ], [ -54.222766, -3.132199599999979 ], [ -54.222743399999956, -3.131679199999951 ], [ -54.222743299999934, -3.131181399999946 ], [ -54.222968299999934, -3.130615599999942 ], [ -54.223125699999969, -3.130095099999949 ], [ -54.223463199999969, -3.129484 ], [ -54.223665599999947, -3.129008699999929 ], [ -54.223823, -3.128375099999971 ], [ -54.223867899999959, -3.127877299999966 ], [ -54.224025299999937, -3.126926899999944 ], [ -54.224092699999972, -3.126293299999929 ], [ -54.224295099999949, -3.125750099999948 ], [ -54.224295, -3.125139199999978 ], [ -54.224272399999961, -3.124256699999933 ], [ -54.224114699999973, -3.123691099999974 ], [ -54.22411459999995, -3.122944399999938 ], [ -54.224137, -3.122469199999955 ], [ -54.224451899999963, -3.121903399999951 ], [ -54.224631899999963, -3.121428199999968 ], [ -54.224924399999963, -3.120907599999953 ], [ -54.225081799999941, -3.120477599999958 ], [ -54.225239199999976, -3.119979699999931 ], [ -54.225599199999976, -3.119572199999936 ], [ -54.225891699999977, -3.119029 ], [ -54.226274199999978, -3.11878 ], [ -54.226791699999978, -3.118417699999952 ], [ -54.227579299999945, -3.117942099999937 ], [ -54.228299299999946, -3.11760229999993 ], [ -54.22917689999997, -3.117172 ], [ -54.229604499999937, -3.116877599999953 ], [ -54.229829399999971, -3.11642489999997 ], [ -54.230099399999972, -3.115949599999965 ], [ -54.23036929999995, -3.115587399999924 ], [ -54.23052679999995, -3.115089599999976 ], [ -54.230594199999985, -3.114456 ], [ -54.230594099999962, -3.113935499999968 ], [ -54.230616399999974, -3.113347199999964 ], [ -54.230638799999952, -3.112826799999937 ], [ -54.230638599999963, -3.111876399999971 ], [ -54.230638499999941, -3.111242899999979 ], [ -54.230615899999975, -3.110586699999942 ], [ -54.230480699999987, -3.110089 ], [ -54.230165399999976, -3.108844599999941 ], [ -54.230030299999953, -3.108279 ], [ -54.229737599999964, -3.107690799999943 ], [ -54.229445, -3.107193199999926 ], [ -54.229062299999953, -3.106582499999945 ], [ -54.228769599999964, -3.106107399999928 ], [ -54.228386899999975, -3.10542879999997 ], [ -54.228251799999953, -3.104863199999954 ], [ -54.228206699999987, -3.10441069999996 ], [ -54.228071499999942, -3.103686699999969 ], [ -54.228071399999976, -3.103143599999953 ], [ -54.228228799999954, -3.10266839999997 ], [ -54.228363699999932, -3.101876299999958 ], [ -54.228363599999966, -3.101310699999942 ], [ -54.228385899999978, -3.100450799999976 ], [ -54.228408299999955, -3.099930399999948 ], [ -54.228430599999967, -3.099206299999935 ], [ -54.228070399999979, -3.098572899999965 ], [ -54.227687799999956, -3.098097899999971 ], [ -54.227282599999967, -3.097826599999962 ], [ -54.22699, -3.097396799999956 ], [ -54.226854899999978, -3.096944399999927 ], [ -54.227034799999956, -3.096310699999947 ], [ -54.227259699999934, -3.095722299999977 ], [ -54.227799699999935, -3.095427899999947 ], [ -54.228227199999935, -3.095133499999974 ], [ -54.228857199999936, -3.094341199999974 ], [ -54.229194599999971, -3.093820599999958 ], [ -54.229329499999949, -3.093277499999942 ], [ -54.229329399999983, -3.092621299999962 ], [ -54.229329299999961, -3.092168699999945 ], [ -54.229486599999973, -3.091512499999965 ], [ -54.229621499999951, -3.090720399999952 ], [ -54.229823799999963, -3.089905699999974 ], [ -54.22982369999994, -3.08931739999997 ], [ -54.229823599999975, -3.088842299999953 ], [ -54.229823499999952, -3.088389699999937 ], [ -54.229688299999964, -3.087733599999979 ], [ -54.229508099999975, -3.087009599999931 ], [ -54.229215399999987, -3.086240399999951 ], [ -54.229080299999964, -3.085539099999949 ], [ -54.228922599999976, -3.085064 ], [ -54.228652499999953, -3.084634199999925 ], [ -54.228427299999964, -3.084181799999953 ], [ -54.228089699999941, -3.083593599999972 ], [ -54.227796899999987, -3.082756599999925 ], [ -54.227684299999964, -3.082191 ], [ -54.227639199999942, -3.081693199999961 ], [ -54.227481499999953, -3.081059699999969 ], [ -54.227323799999965, -3.080426199999977 ], [ -54.227166099999977, -3.079634399999975 ], [ -54.227008499999954, -3.079204499999946 ], [ -54.226783399999931, -3.078706899999929 ], [ -54.226535699999943, -3.078073399999937 ], [ -54.226328, -3.077590099999952 ], [ -54.226053499999978, -3.076951099999974 ], [ -54.22563219999995, -3.075970499999926 ], [ -54.225000399999942, -3.075000699999975 ], [ -54.260278299999982, -2.999166299999956 ], [ -54.260685, -2.998659099999941 ], [ -54.260935299999971, -2.99811 ], [ -54.260666499999957, -2.997611599999971 ], [ -54.260375199999942, -2.997135799999967 ], [ -54.260061199999939, -2.996727799999974 ], [ -54.259747299999958, -2.996319799999981 ], [ -54.259500699999933, -2.995934499999976 ], [ -54.259232, -2.995436099999949 ], [ -54.258873699999981, -2.994756499999937 ], [ -54.258649799999944, -2.994303399999978 ], [ -54.258448599999952, -2.99375989999993 ], [ -54.258404699999971, -2.993284599999924 ], [ -54.258316199999967, -2.992673399999944 ], [ -54.258317299999931, -2.992198199999962 ], [ -54.258386, -2.991655299999934 ], [ -54.258544599999937, -2.991157799999939 ], [ -54.259017599999936, -2.990909899999963 ], [ -54.259580599999936, -2.990594399999964 ], [ -54.260008899999946, -2.990210699999977 ], [ -54.26037, -2.989713599999959 ], [ -54.260551, -2.989261499999941 ], [ -54.260642, -2.988809099999969 ], [ -54.260643199999947, -2.988266 ], [ -54.260689299999967, -2.987790899999936 ], [ -54.260735699999941, -2.98718 ], [ -54.260871799999961, -2.986705099999938 ], [ -54.260895399999981, -2.98623 ], [ -54.261099099999967, -2.985687399999961 ], [ -54.261438399999975, -2.984873499999935 ], [ -54.26150709999996, -2.98435319999993 ], [ -54.261485799999946, -2.983810099999971 ], [ -54.261329599999954, -2.983266599999979 ], [ -54.261173199999973, -2.982813699999951 ], [ -54.26094919999997, -2.982405899999947 ], [ -54.260500699999966, -2.981816599999945 ], [ -54.260164499999973, -2.981318 ], [ -54.259738299999981, -2.980796599999962 ], [ -54.259356799999978, -2.980411099999969 ], [ -54.259042699999952, -2.980071 ], [ -54.258661299999972, -2.979640199999949 ], [ -54.258347299999969, -2.979254799999978 ], [ -54.258033599999976, -2.97875629999993 ], [ -54.258124699999939, -2.978236 ], [ -54.258463099999972, -2.977829499999928 ], [ -54.258778799999959, -2.977490699999976 ], [ -54.259184499999947, -2.977129599999955 ], [ -54.259477799999956, -2.976745499999936 ], [ -54.259771599999965, -2.976135199999931 ], [ -54.259976, -2.975275799999963 ], [ -54.259774799999946, -2.974732299999971 ], [ -54.259460899999965, -2.974301599999933 ], [ -54.259124499999984, -2.973870899999952 ], [ -54.258698, -2.973485299999936 ], [ -54.258271099999945, -2.973303399999963 ], [ -54.257889299999931, -2.973031 ], [ -54.25753009999994, -2.972736 ], [ -54.257126, -2.972418299999958 ], [ -54.256856899999946, -2.972055699999942 ], [ -54.256565399999943, -2.971670399999937 ], [ -54.256341499999962, -2.971217299999978 ], [ -54.256072499999959, -2.970832 ], [ -54.255849099999978, -2.970152699999971 ], [ -54.255850299999963, -2.969654899999966 ], [ -54.255963799999961, -2.969202499999938 ], [ -54.256144899999981, -2.968705099999966 ], [ -54.256460599999969, -2.968343799999957 ], [ -54.256888799999956, -2.967982599999971 ], [ -54.257587299999955, -2.967463699999939 ], [ -54.257992699999932, -2.967238299999963 ], [ -54.258331, -2.966854399999932 ], [ -54.258579399999974, -2.966402399999936 ], [ -54.258625699999982, -2.965859399999943 ], [ -54.258559699999978, -2.965203 ], [ -54.25838129999994, -2.964546399999961 ], [ -54.258337299999937, -2.964093699999978 ], [ -54.258248499999979, -2.963573099999962 ], [ -54.258182199999965, -2.963075099999969 ], [ -54.25818419999996, -2.96219259999998 ], [ -54.258298099999934, -2.961604499999964 ], [ -54.258299199999954, -2.961129299999925 ], [ -54.258435299999974, -2.960609199999965 ], [ -54.258436699999947, -2.960020799999938 ], [ -54.258370399999933, -2.959477599999957 ], [ -54.258192399999984, -2.95864 ], [ -54.257924, -2.958005799999967 ], [ -54.257588, -2.957394099999931 ], [ -54.257206599999961, -2.956940699999961 ], [ -54.256847799999946, -2.956487299999935 ], [ -54.256444399999964, -2.95583019999998 ], [ -54.256018599999948, -2.95515039999998 ], [ -54.255750099999943, -2.954538899999932 ], [ -54.255368899999951, -2.954040199999952 ], [ -54.254583, -2.953472799999929 ], [ -54.253616499999964, -2.953176499999927 ], [ -54.253144, -2.953220699999974 ], [ -54.252649099999985, -2.953264899999965 ], [ -54.252244899999937, -2.952969799999948 ], [ -54.25178219999998, -2.952539599999966 ], [ -54.251226199999962, -2.952378599999975 ], [ -54.250684899999953, -2.952320099999952 ], [ -54.250000399999976, -2.95222229999996 ], [ -54.294445, -2.886388799999963 ], [ -54.294443699999931, -2.886387599999978 ], [ -54.294097, -2.885738899999978 ], [ -54.294255799999974, -2.885105599999974 ], [ -54.294729399999937, -2.884518299999968 ], [ -54.29511279999997, -2.884043899999938 ], [ -54.295495799999969, -2.883773099999928 ], [ -54.295923799999969, -2.883479799999975 ], [ -54.296329299999968, -2.883186499999965 ], [ -54.296757199999945, -2.882915799999978 ], [ -54.297275399999933, -2.882532199999957 ], [ -54.297748499999955, -2.882193799999925 ], [ -54.297929599999975, -2.881673699999965 ], [ -54.298020699999938, -2.88115339999996 ], [ -54.29817909999997, -2.880723799999942 ], [ -54.29842739999998, -2.880294299999946 ], [ -54.298967799999957, -2.880023899999969 ], [ -54.299417699999935, -2.880024899999967 ], [ -54.299912599999971, -2.879958 ], [ -54.300318, -2.879709899999966 ], [ -54.300746099999969, -2.879371399999968 ], [ -54.301287299999956, -2.878761499999939 ], [ -54.301603099999966, -2.878309599999966 ], [ -54.302076399999976, -2.877903199999935 ], [ -54.302751699999931, -2.877655699999934 ], [ -54.303448799999956, -2.877725099999964 ], [ -54.304033499999946, -2.877748899999972 ], [ -54.304933199999937, -2.877750799999944 ], [ -54.305472899999984, -2.877797199999975 ], [ -54.306035, -2.877911499999925 ], [ -54.306709199999943, -2.878139199999964 ], [ -54.307293699999946, -2.878298799999925 ], [ -54.307743199999948, -2.878458099999932 ], [ -54.308777, -2.878822299999968 ], [ -54.309271399999943, -2.879027 ], [ -54.30981079999998, -2.879186599999969 ], [ -54.310463, -2.879233199999931 ], [ -54.311115299999983, -2.879234499999939 ], [ -54.311902799999984, -2.87910039999997 ], [ -54.312600299999986, -2.878988699999979 ], [ -54.313410299999987, -2.878854599999954 ], [ -54.314107899999954, -2.878720199999975 ], [ -54.314895399999955, -2.878563499999927 ], [ -54.315570599999944, -2.878383799999938 ], [ -54.316066099999944, -2.878090699999973 ], [ -54.316742099999942, -2.877503699999977 ], [ -54.317170099999942, -2.877233 ], [ -54.317801199999963, -2.876623299999949 ], [ -54.318341699999962, -2.876285 ], [ -54.318882099999939, -2.876037199999928 ], [ -54.319332299999985, -2.875879699999928 ], [ -54.320007199999964, -2.875813199999925 ], [ -54.320569399999954, -2.875837 ], [ -54.321086499999979, -2.875973899999963 ], [ -54.321535899999958, -2.87617849999998 ], [ -54.322007699999972, -2.876405699999964 ], [ -54.322479599999951, -2.876633 ], [ -54.323086399999966, -2.876815299999976 ], [ -54.323693499999933, -2.876929699999948 ], [ -54.324233199999981, -2.876976099999979 ], [ -54.324705599999959, -2.876931799999966 ], [ -54.325180299999943, -2.876789 ], [ -54.325314, -2.876457799999969 ], [ -54.325315, -2.876005199999952 ], [ -54.325697899999966, -2.87575709999993 ], [ -54.326438199999984, -2.875647399999934 ], [ -54.326936699999976, -2.875653599999964 ], [ -54.327768099999957, -2.875539499999945 ], [ -54.328697199999965, -2.875295 ], [ -54.329414499999984, -2.874969 ], [ -54.330033899999933, -2.87452879999995 ], [ -54.330392499999959, -2.874268 ], [ -54.330522899999949, -2.873713799999962 ], [ -54.330832599999951, -2.872442299999932 ], [ -54.330848899999978, -2.870893699999954 ], [ -54.330767399999957, -2.869915699999979 ], [ -54.330571799999973, -2.869002799999976 ], [ -54.330245799999943, -2.868367099999944 ], [ -54.330196899999976, -2.867584699999952 ], [ -54.330327299999965, -2.86688369999996 ], [ -54.330196899999976, -2.865922 ], [ -54.330131699999981, -2.864943899999957 ], [ -54.330539199999976, -2.864210399999934 ], [ -54.331011899999964, -2.863819199999966 ], [ -54.331223899999941, -2.862971499999958 ], [ -54.331452099999979, -2.86183049999994 ], [ -54.331875899999943, -2.861325099999931 ], [ -54.332511599999975, -2.860510099999942 ], [ -54.333391899999981, -2.859743899999955 ], [ -54.334125399999948, -2.859597199999939 ], [ -54.334630699999934, -2.859010399999931 ], [ -54.335266499999932, -2.858602899999937 ], [ -54.336110899999937, -2.858333499999958 ], [ -54.342161199999964, -2.854971499999976 ], [ -54.343609699999945, -2.854166599999928 ], [ -54.343611099999976, -2.854166699999951 ], [ -54.343635099999972, -2.853238399999952 ], [ -54.343852099999935, -2.852587399999948 ], [ -54.344658, -2.851967499999944 ], [ -54.345247, -2.851223499999946 ], [ -54.345309, -2.850355599999943 ], [ -54.344999, -2.849394599999926 ], [ -54.345123, -2.848557699999958 ], [ -54.345526, -2.847906799999976 ], [ -54.346145899999954, -2.847379799999942 ], [ -54.346238899999946, -2.846542799999952 ], [ -54.34608389999994, -2.845612899999935 ], [ -54.34583589999994, -2.844745 ], [ -54.346052899999961, -2.844032 ], [ -54.346145899999954, -2.843288099999938 ], [ -54.345897899999954, -2.842544099999941 ], [ -54.345759499999986, -2.842023199999971 ], [ -54.346054199999969, -2.841598099999942 ], [ -54.346257599999944, -2.841168599999946 ], [ -54.346214, -2.840648299999941 ], [ -54.34603519999996, -2.840218099999959 ], [ -54.345766599999934, -2.839697399999977 ], [ -54.345498099999986, -2.839154 ], [ -54.345387099999982, -2.838588199999947 ], [ -54.345636, -2.837977899999942 ], [ -54.345951799999966, -2.837593899999945 ], [ -54.346334899999931, -2.837300599999935 ], [ -54.346740299999965, -2.837075099999936 ], [ -54.347101299999963, -2.83657809999994 ], [ -54.347147599999971, -2.83608049999998 ], [ -54.347193199999936, -2.835551799999962 ], [ -54.347397399999977, -2.835108299999945 ], [ -54.347668199999987, -2.834724199999926 ], [ -54.347849499999938, -2.834181599999965 ], [ -54.347850699999981, -2.833729199999937 ], [ -54.348144, -2.83334519999994 ], [ -54.34846, -2.832893399999932 ], [ -54.34866379999994, -2.832305599999927 ], [ -54.34889, -2.831808299999977 ], [ -54.349026199999969, -2.831288299999926 ], [ -54.349072699999965, -2.830700199999967 ], [ -54.349096399999951, -2.83020259999995 ], [ -54.349232699999959, -2.829682599999956 ], [ -54.349458599999934, -2.829253199999926 ], [ -54.349684599999932, -2.828823799999952 ], [ -54.349731599999984, -2.828032099999973 ], [ -54.349867899999936, -2.827489499999956 ], [ -54.350273499999957, -2.827173499999958 ], [ -54.350837, -2.826654299999973 ], [ -54.351175599999976, -2.826157199999955 ], [ -54.351468899999986, -2.825773199999958 ], [ -54.351717399999984, -2.825321199999962 ], [ -54.351853499999947, -2.824869 ], [ -54.351877399999978, -2.824303499999928 ], [ -54.351923599999964, -2.823806 ], [ -54.351969799999949, -2.823308399999974 ], [ -54.35226339999997, -2.822833899999978 ], [ -54.352669399999968, -2.822336899999925 ], [ -54.353494199999943, -2.822040099999981 ], [ -54.354071099999942, -2.821374499999934 ], [ -54.35420419999997, -2.820753199999956 ], [ -54.354071099999942, -2.819976699999927 ], [ -54.353871399999946, -2.819311099999936 ], [ -54.353760499999964, -2.818490199999928 ], [ -54.353759899999943, -2.817950399999972 ], [ -54.353806399999939, -2.817339699999934 ], [ -54.353695199999947, -2.816841899999929 ], [ -54.353651499999955, -2.816321499999958 ], [ -54.353871399999946, -2.815894299999968 ], [ -54.354125799999963, -2.815530599999931 ], [ -54.354337299999941, -2.81509559999995 ], [ -54.354375399999981, -2.814626199999964 ], [ -54.354129199999932, -2.814150699999971 ], [ -54.354062899999974, -2.813698199999976 ], [ -54.354199, -2.81322339999997 ], [ -54.354357499999935, -2.812793899999974 ], [ -54.354471099999955, -2.812319 ], [ -54.354517199999975, -2.811866699999939 ], [ -54.354607499999986, -2.81175369999994 ], [ -54.355091699999946, -2.81121289999993 ], [ -54.355113899999935, -2.81052509999995 ], [ -54.355690699999968, -2.80999259999993 ], [ -54.356535899999983, -2.809748599999978 ], [ -54.356660199999965, -2.809223899999949 ], [ -54.356755699999951, -2.808816699999966 ], [ -54.357159499999966, -2.808465899999931 ], [ -54.357562499999972, -2.80813969999997 ], [ -54.357576599999959, -2.80786269999993 ], [ -54.357896199999971, -2.807527099999959 ], [ -54.358482799999933, -2.807352399999957 ], [ -54.358969499999944, -2.807077799999945 ], [ -54.359031899999934, -2.806566099999941 ], [ -54.358919599999979, -2.806166799999971 ], [ -54.359131799999943, -2.805705 ], [ -54.359181699999965, -2.805130899999938 ], [ -54.359044399999959, -2.804794 ], [ -54.358682499999986, -2.804494399999953 ], [ -54.358345499999984, -2.804257299999961 ], [ -54.358202799999958, -2.803888 ], [ -54.358204599999965, -2.803141499999924 ], [ -54.358205899999973, -2.802643799999942 ], [ -54.358252199999981, -2.802078399999971 ], [ -54.358523199999979, -2.801649099999963 ], [ -54.358726599999954, -2.801219599999968 ], [ -54.358907699999975, -2.800767499999949 ], [ -54.359268399999962, -2.800383599999975 ], [ -54.359719, -2.800045099999977 ], [ -54.360169799999937, -2.799661399999934 ], [ -54.360642899999959, -2.799322899999936 ], [ -54.361003399999959, -2.799052099999926 ], [ -54.361364099999946, -2.798690799999974 ], [ -54.361747599999944, -2.798216399999944 ], [ -54.362154, -2.797538499999973 ], [ -54.362357499999973, -2.797109099999943 ], [ -54.362673499999971, -2.796634599999948 ], [ -54.362989199999959, -2.796295799999939 ], [ -54.363552699999957, -2.795753899999966 ], [ -54.364183099999934, -2.795461 ], [ -54.364678699999956, -2.795122499999934 ], [ -54.365219599999932, -2.79467109999996 ], [ -54.365580099999931, -2.794400199999927 ], [ -54.366030599999931, -2.794084299999952 ], [ -54.366413699999953, -2.793768299999954 ], [ -54.36675189999994, -2.793429599999968 ], [ -54.367270499999961, -2.792865 ], [ -54.367608899999937, -2.792435799999964 ], [ -54.367677599999979, -2.791915599999925 ], [ -54.367656299999965, -2.79146309999993 ], [ -54.367455599999971, -2.790761499999974 ], [ -54.367254499999945, -2.790218299999935 ], [ -54.366985899999975, -2.789742699999977 ], [ -54.36671709999996, -2.789312399999972 ], [ -54.366658199999961, -2.788575499999979 ], [ -54.366658199999961, -2.787980799999957 ], [ -54.366666699999939, -2.787500399999942 ], [ -54.376648199999977, -2.783953099999962 ], [ -54.376746399999945, -2.783932099999959 ], [ -54.383654499999977, -2.78243509999993 ], [ -54.38402039999994, -2.782351799999958 ], [ -54.389129199999957, -2.781132699999944 ], [ -54.389839499999937, -2.781079199999965 ], [ -54.395597499999951, -2.781552099999942 ], [ -54.399493399999983, -2.78235959999995 ], [ -54.408133499999963, -2.784247499999935 ], [ -54.408194299999934, -2.784260699999948 ], [ -54.408929499999942, -2.78440269999993 ], [ -54.412739199999976, -2.78505679999995 ], [ -54.414398199999937, -2.785468899999955 ], [ -54.414942899999971, -2.785595299999954 ], [ -54.418048699999986, -2.786264899999935 ], [ -54.418377, -2.786332399999935 ], [ -54.41870659999995, -2.786393799999928 ], [ -54.419037299999957, -2.786449 ], [ -54.419368899999938, -2.786498 ], [ -54.419701399999951, -2.786540899999977 ], [ -54.420034599999951, -2.786577499999964 ], [ -54.420368499999938, -2.786607899999979 ], [ -54.420702799999958, -2.786632099999963 ], [ -54.421037599999977, -2.786650099999974 ], [ -54.421372599999984, -2.786661799999933 ], [ -54.421707799999979, -2.786667299999976 ], [ -54.422043099999939, -2.786666499999967 ], [ -54.425339899999983, -2.786626399999932 ], [ -54.425689199999965, -2.786618799999928 ], [ -54.426038399999982, -2.786604399999931 ], [ -54.426387099999943, -2.786583199999939 ], [ -54.426735399999984, -2.786555199999952 ], [ -54.427083099999948, -2.786520499999938 ], [ -54.42743, -2.786479 ], [ -54.42777609999996, -2.786430799999948 ], [ -54.432146599999953, -2.785778599999958 ], [ -54.432878099999982, -2.785654 ], [ -54.433105599999976, -2.785608899999943 ], [ -54.436066399999959, -2.78500159999993 ], [ -54.436404599999946, -2.784928899999954 ], [ -54.43674139999996, -2.784849599999973 ], [ -54.437076599999955, -2.784763899999973 ], [ -54.437410099999965, -2.784671699999933 ], [ -54.437741799999969, -2.784573199999954 ], [ -54.438071499999978, -2.784468299999958 ], [ -54.43839909999997, -2.784357 ], [ -54.438724499999978, -2.784239499999956 ], [ -54.439047599999981, -2.784115799999938 ], [ -54.441743899999949, -2.783053199999927 ], [ -54.442319599999962, -2.782875899999965 ], [ -54.44253329999998, -2.782860599999935 ], [ -54.443259099999977, -2.782937499999946 ], [ -54.447159799999952, -2.783744299999967 ], [ -54.45286729999998, -2.785293299999978 ], [ -54.454931199999976, -2.785964699999965 ], [ -54.455272299999933, -2.786071899999968 ], [ -54.455615399999942, -2.786172299999976 ], [ -54.455960499999946, -2.786265899999933 ], [ -54.456307399999957, -2.78635259999993 ], [ -54.456656, -2.786432399999967 ], [ -54.457006, -2.786505299999931 ], [ -54.457357499999944, -2.786571099999946 ], [ -54.457710199999951, -2.78663 ], [ -54.460152499999936, -2.787012799999957 ], [ -54.460476699999958, -2.787060599999961 ], [ -54.460801799999956, -2.787102499999946 ], [ -54.461127499999975, -2.787138499999969 ], [ -54.461453899999981, -2.78716849999995 ], [ -54.461780799999985, -2.787192499999946 ], [ -54.462108, -2.78721059999998 ], [ -54.462435599999935, -2.787222799999938 ], [ -54.462763299999949, -2.787228899999945 ], [ -54.463091, -2.787229099999934 ], [ -54.463418699999977, -2.787223399999959 ], [ -54.463746299999968, -2.787211599999978 ], [ -54.465766499999972, -2.787120699999946 ], [ -54.466109599999982, -2.787102 ], [ -54.466452299999958, -2.787076699999943 ], [ -54.466794399999969, -2.787044899999955 ], [ -54.46713589999996, -2.787006499999961 ], [ -54.467476599999941, -2.786961699999949 ], [ -54.467816299999981, -2.786910299999931 ], [ -54.468155, -2.78685239999993 ], [ -54.468492599999934, -2.786788099999967 ], [ -54.468828899999949, -2.78671739999993 ], [ -54.469163699999967, -2.786640199999965 ], [ -54.469497, -2.786556699999949 ], [ -54.469828699999937, -2.786466799999971 ], [ -54.470158599999934, -2.786370599999941 ], [ -54.470486499999936, -2.786268099999972 ], [ -54.470812499999965, -2.786159399999974 ], [ -54.471136299999955, -2.78604439999998 ], [ -54.471457899999962, -2.785923299999979 ], [ -54.47177709999994, -2.78579609999997 ], [ -54.472093799999982, -2.785662799999955 ], [ -54.473833899999931, -2.784910699999955 ], [ -54.47416039999996, -2.78476569999998 ], [ -54.474484, -2.784614199999965 ], [ -54.474804499999948, -2.784456399999954 ], [ -54.475121799999954, -2.784292199999925 ], [ -54.475435799999957, -2.78412179999998 ], [ -54.475746299999969, -2.783945099999926 ], [ -54.476053199999967, -2.783762299999978 ], [ -54.476356499999952, -2.783573499999932 ], [ -54.476656, -2.783378699999957 ], [ -54.476951499999984, -2.783177899999941 ], [ -54.477243, -2.782971399999951 ], [ -54.477530299999955, -2.782759 ], [ -54.477813399999945, -2.782541099999946 ], [ -54.478092, -2.782317499999976 ], [ -54.478366199999982, -2.782088499999929 ], [ -54.47863579999995, -2.781854 ], [ -54.478900599999974, -2.781614199999979 ], [ -54.479160699999966, -2.781369299999938 ], [ -54.47941579999997, -2.781119199999978 ], [ -54.479665899999986, -2.780864099999974 ], [ -54.479910899999936, -2.780604099999948 ], [ -54.481653, -2.778717899999947 ], [ -54.481882, -2.778465099999949 ], [ -54.482106299999941, -2.778208099999972 ], [ -54.482325599999967, -2.777946799999938 ], [ -54.482539899999949, -2.777681399999949 ], [ -54.482749099999978, -2.777412 ], [ -54.48295319999994, -2.777138699999966 ], [ -54.483152099999984, -2.776861599999961 ], [ -54.483345699999973, -2.776580699999954 ], [ -54.484956, -2.774196199999949 ], [ -54.486692199999936, -2.772302299999978 ], [ -54.486896699999932, -2.772075399999949 ], [ -54.487097299999959, -2.771845 ], [ -54.487293899999941, -2.771611299999961 ], [ -54.487486599999954, -2.771374299999934 ], [ -54.487675199999956, -2.771134099999927 ], [ -54.487859699999944, -2.770890599999973 ], [ -54.491561099999956, -2.765919899999972 ], [ -54.49287419999996, -2.764263199999959 ], [ -54.493930699999964, -2.762931399999957 ], [ -54.49411159999994, -2.76269949999994 ], [ -54.49428869999997, -2.76246459999993 ], [ -54.494462, -2.762226799999951 ], [ -54.49463129999998, -2.761986299999933 ], [ -54.496259, -2.759633599999972 ], [ -54.496624499999939, -2.759201099999927 ], [ -54.496849299999951, -2.758935 ], [ -54.49743959999995, -2.75823639999993 ], [ -54.499232, -2.75634569999994 ], [ -54.502890599999944, -2.753052899999943 ], [ -54.503362399999958, -2.752612699999929 ], [ -54.503825399999982, -2.752148399999953 ], [ -54.507496899999978, -2.748328899999933 ], [ -54.507597499999974, -2.748223399999972 ], [ -54.50814, -2.747623399999952 ], [ -54.509928699999932, -2.745551399999954 ], [ -54.511442699999975, -2.74379719999996 ], [ -54.511672299999987, -2.743525899999952 ], [ -54.511896499999978, -2.74325 ], [ -54.512115199999982, -2.742969799999969 ], [ -54.512328299999979, -2.742685299999948 ], [ -54.512535699999944, -2.742396699999972 ], [ -54.512737399999935, -2.742104 ], [ -54.512933299999986, -2.741807299999948 ], [ -54.513123199999939, -2.741506899999933 ], [ -54.514834699999938, -2.738740099999973 ], [ -54.516870299999937, -2.735638399999971 ], [ -54.517028799999935, -2.735392599999955 ], [ -54.517183299999942, -2.735144199999979 ], [ -54.517333699999938, -2.734893399999976 ], [ -54.519360799999959, -2.731449399999974 ], [ -54.519528399999956, -2.73115839999997 ], [ -54.519690599999933, -2.730864399999973 ], [ -54.519847299999981, -2.730567299999962 ], [ -54.519998299999941, -2.730267399999946 ], [ -54.520143799999971, -2.729964799999948 ], [ -54.520283599999971, -2.729659399999946 ], [ -54.520417599999973, -2.729351599999973 ], [ -54.520545899999945, -2.729041199999926 ], [ -54.520668399999977, -2.728728499999932 ], [ -54.520785, -2.728413599999953 ], [ -54.521488899999952, -2.726456599999949 ], [ -54.522192699999948, -2.725309899999957 ], [ -54.523611799999969, -2.723459399999967 ], [ -54.525861199999952, -2.721030699999972 ], [ -54.528872499999977, -2.717981799999961 ], [ -54.531778, -2.715284699999927 ], [ -54.532129199999986, -2.715105899999969 ], [ -54.532426, -2.714951299999939 ], [ -54.532719899999961, -2.714791199999979 ], [ -54.533010699999977, -2.714625599999977 ], [ -54.533298399999978, -2.714454699999976 ], [ -54.533582899999942, -2.714278399999955 ], [ -54.53386409999996, -2.714096899999959 ], [ -54.534141799999986, -2.713910099999964 ], [ -54.534416099999987, -2.713718299999925 ], [ -54.534686699999952, -2.713521299999968 ], [ -54.534953599999938, -2.713319399999932 ], [ -54.535216599999956, -2.713112499999966 ], [ -54.536847899999941, -2.711805099999935 ], [ -54.539557399999978, -2.710182199999963 ], [ -54.542243499999984, -2.708572799999956 ], [ -54.542518599999937, -2.708404599999938 ], [ -54.542790599999933, -2.708231399999931 ], [ -54.54305949999997, -2.708053499999949 ], [ -54.54332519999997, -2.707870699999944 ], [ -54.543587599999967, -2.707683199999963 ], [ -54.543846499999972, -2.707491 ], [ -54.546340199999975, -2.705605699999978 ], [ -54.546622599999978, -2.70538769999996 ], [ -54.546900599999958, -2.705164199999956 ], [ -54.547174199999972, -2.704935199999966 ], [ -54.547443099999953, -2.704700799999955 ], [ -54.547707399999979, -2.704461099999946 ], [ -54.547966799999983, -2.704216299999928 ], [ -54.548221399999932, -2.703966299999934 ], [ -54.548470899999984, -2.703711299999952 ], [ -54.548715299999969, -2.703451499999971 ], [ -54.548954599999945, -2.703186799999969 ], [ -54.549188499999957, -2.702917499999955 ], [ -54.549417, -2.702643599999931 ], [ -54.549640099999976, -2.702365099999952 ], [ -54.549857599999939, -2.702082399999938 ], [ -54.550069399999984, -2.701795299999958 ], [ -54.550275599999964, -2.701504099999966 ], [ -54.550475899999981, -2.701208899999926 ], [ -54.550670299999979, -2.700909799999977 ], [ -54.551728499999967, -2.699245599999927 ], [ -54.551989899999967, -2.698834499999975 ], [ -54.552159299999971, -2.698562799999934 ], [ -54.552323799999954, -2.698288199999979 ], [ -54.552483399999971, -2.698010699999941 ], [ -54.552638, -2.697730399999955 ], [ -54.552787599999931, -2.697447299999965 ], [ -54.554154799999935, -2.694804399999953 ], [ -54.554316299999982, -2.694484399999965 ], [ -54.554471399999954, -2.694161299999962 ], [ -54.55462, -2.693835199999967 ], [ -54.554762099999948, -2.693506099999979 ], [ -54.554897599999947, -2.693174299999953 ], [ -54.55502649999994, -2.692839899999967 ], [ -54.555148699999961, -2.692502899999965 ], [ -54.555264099999931, -2.692163599999958 ], [ -54.555372799999986, -2.691822 ], [ -54.555474599999968, -2.691478399999937 ], [ -54.555569599999956, -2.691132799999934 ], [ -54.555657699999983, -2.690785399999925 ], [ -54.555738799999972, -2.690436199999965 ], [ -54.555812899999978, -2.690085599999975 ], [ -54.555880099999968, -2.689733499999932 ], [ -54.555940199999952, -2.68938019999996 ], [ -54.555993199999932, -2.689025699999945 ], [ -54.556039199999987, -2.688670199999933 ], [ -54.556078099999979, -2.688313899999969 ], [ -54.556109899999967, -2.687956899999961 ], [ -54.55613459999995, -2.687599399999954 ], [ -54.556150799999955, -2.687324399999966 ], [ -54.556264499999941, -2.685915899999941 ], [ -54.558141199999966, -2.683390299999928 ], [ -54.558342099999948, -2.683114499999931 ], [ -54.558537699999931, -2.682835 ], [ -54.558728, -2.682551799999942 ], [ -54.558912899999939, -2.682265 ], [ -54.559092299999975, -2.681974799999978 ], [ -54.559266199999968, -2.681681199999957 ], [ -54.561106799999948, -2.678505099999938 ], [ -54.562952899999971, -2.675854199999947 ], [ -54.565346199999965, -2.672717499999976 ], [ -54.565476699999977, -2.672666299999946 ], [ -54.566116299999976, -2.672401199999968 ], [ -54.566352299999949, -2.672296 ], [ -54.568421099999966, -2.671355799999958 ], [ -54.568912099999977, -2.67112359999993 ], [ -54.569471799999974, -2.670836299999962 ], [ -54.571546799999965, -2.669718199999977 ], [ -54.572049299999946, -2.669448 ], [ -54.572257299999933, -2.669342599999936 ], [ -54.572289699999942, -2.669324699999947 ], [ -54.575111399999969, -2.667770899999937 ], [ -54.575384299999939, -2.667617499999949 ], [ -54.57731949999993, -2.666507399999944 ], [ -54.580184899999949, -2.664863799999978 ], [ -54.581303399999967, -2.664230499999974 ], [ -54.583288699999969, -2.663106299999924 ], [ -54.58777269999996, -2.660880799999973 ], [ -54.587872599999969, -2.660830799999928 ], [ -54.590205699999956, -2.659654699999976 ], [ -54.593478599999969, -2.658005799999955 ], [ -54.593777199999977, -2.657851799999946 ], [ -54.594073, -2.657692299999951 ], [ -54.594365599999946, -2.65752729999997 ], [ -54.594655199999977, -2.657356799999945 ], [ -54.594941499999948, -2.657181 ], [ -54.595224499999972, -2.65699989999996 ], [ -54.598611799999958, -2.654786499999943 ], [ -54.59889469999996, -2.654597899999942 ], [ -54.599173899999982, -2.654403899999977 ], [ -54.599449399999969, -2.65420469999998 ], [ -54.599721099999954, -2.654000399999973 ], [ -54.599988899999971, -2.653790899999933 ], [ -54.600252599999976, -2.653576399999963 ], [ -54.600512299999934, -2.653357 ], [ -54.600767799999971, -2.653132599999935 ], [ -54.600819599999966, -2.653085399999952 ], [ -54.601019, -2.652903499999979 ], [ -54.601265799999965, -2.652669699999933 ], [ -54.601508099999933, -2.652431299999932 ], [ -54.603060899999946, -2.650874499999929 ], [ -54.603308399999946, -2.650621399999977 ], [ -54.606717199999935, -2.64706659999996 ], [ -54.61111429999994, -2.642521699999975 ], [ -54.611350899999934, -2.642272299999945 ], [ -54.611582699999985, -2.642018599999972 ], [ -54.611809699999981, -2.641760399999953 ], [ -54.612031599999966, -2.641497899999933 ], [ -54.612248499999964, -2.641231299999959 ], [ -54.612460299999952, -2.640960499999949 ], [ -54.612666899999965, -2.640685799999972 ], [ -54.614127399999973, -2.638703899999939 ], [ -54.614332699999977, -2.638419499999941 ], [ -54.614532499999939, -2.638131099999953 ], [ -54.614726599999983, -2.637838899999963 ], [ -54.615326899999957, -2.63691579999994 ], [ -54.617766399999937, -2.633335799999941 ], [ -54.620211499999982, -2.63001289999994 ], [ -54.620526899999959, -2.629570499999943 ], [ -54.623349, -2.625482099999942 ], [ -54.625, -2.620832399999927 ], [ -54.653243699999962, -2.612570299999959 ], [ -54.672168899999974, -2.607034099999964 ], [ -54.677013399999964, -2.605616899999973 ], [ -54.680397299999981, -2.604627 ], [ -54.718055699999979, -2.593610799999965 ], [ -54.718151799999987, -2.595437499999946 ], [ -54.718214799999942, -2.596636699999976 ], [ -54.71826249999998, -2.597543299999927 ], [ -54.718278899999973, -2.597854499999926 ], [ -54.718428, -2.60069059999995 ], [ -54.718610799999965, -2.604166 ], [ -54.725524599999972, -2.619792299999972 ], [ -54.725835299999972, -2.62049449999995 ], [ -54.726452499999937, -2.621889599999975 ], [ -54.728551399999958, -2.626633499999969 ] ] ] ] } }
]
}
